CBERS 4                 
1 40336U 14079A   20207.44785425 -.00000026  00000-0  63049-5 0  9993
2 40336  98.5610 278.8115 0001232  58.8493 301.2820 14.35415486295131
CZ-4B R/B               
1 40337U 14079B   20207.11343866  .00000169  00000-0  19751-4 0  9994
2 40337  98.4540  95.4177 0176500 186.1697 173.7346 14.89390909306001
